[Satellite]
VERSION=1.1
NAME=NEE-02 KRYSAOR
NICKNAME=NEE-02 KRYSAOR
TLE1=1 39441U 13066AB  19317.48518328  .00000133  00000-0  26119-4 0  9997
TLE2=2 39441  97.6175 304.9321 0081108 333.5512  26.1568 14.74949410321580
STATUS=0
